{"epoch":1784799577,"count":18318,"objects":[{"id":"28054","name":"DMSP 5D-3 F16 (USA 172)","type":"PAYLOAD","l1":"1 28054U 03048A   26203.89842801 -.00000018  00000-0  14097-4 0  9992","l2":"2 28054  98.9887 227.9617 0007909  52.2619  69.4744 14.14484926174531"},{"id":"28912","name":"METEOSAT 9 (MSG 2)","type":"PAYLOAD","l1":"1 28912U 05049B   26203.69463781  .00000120  00000-0  00000-0 0  9990","l2":"2 28912   9.4395  53.8119 0002497   0.9347 181.4776  1.00276413  7359"},{"id":"29522","name":"DMSP 5D-3 F17 (USA 191)","type":"PAYLOAD","l1":"1 29522U 06050A   26203.94955150  .00000018  00000-0  31578-4 0  9999","l2":"2 29522  98.7391 209.7897 0009299 319.4411  40.6069 14.14996720 17481"},{"id":"32958","name":"FENGYUN 3A","type":"PAYLOAD","l1":"1 32958U 08026A   26203.57093848  .00000048  00000-0  43355-4 0  9996","l2":"2 32958  98.6886 143.7435 0009363  32.4409 327.7342 14.19577609940420"},{"id":"35491","name":"EWS-G3","type":"PAYLOAD","l1":"1 35491U 09033A   26203.92328366 -.00000356  00000-0  00000-0 0  9994","l2":"2 35491   1.7793  82.5995 0002233  39.4726 271.1668  1.00094772  6940"},{"id":"35951","name":"DMSP 5D-3 F18 (USA 210)","type":"PAYLOAD","l1":"1 35951U 09057A   26203.92314267  .00000227  00000-0  14073-3 0  9990","l2":"2 35951  98.9063 184.6193 0011648 144.3614 215.8339 14.14915400864643"},{"id":"36411","name":"EWS-G2","type":"PAYLOAD","l1":"1 36411U 10008A   26203.94682146  .00000025  00000-0  00000-0 0  9994","l2":"2 36411   1.3739  82.3732 0005635  52.5640 209.8467  1.00272247 59999"},{"id":"36744","name":"COMS 1","type":"PAYLOAD","l1":"1 36744U 10032A   26203.45850079 -.00000155  00000-0  00000-0 0  9993","l2":"2 36744   4.8933  74.9302 0011516  15.3115 308.1968  0.99166246 51439"},{"id":"37214","name":"FENGYUN 3B","type":"PAYLOAD","l1":"1 37214U 10059A   26203.95764329 -.00000393  00000-0 -17974-3 0  9998","l2":"2 37214  98.9604 250.1199 0023264  85.7782  35.2058 14.14846554812484"},{"id":"37849","name":"NPP","type":"PAYLOAD","l1":"1 37849U 11061A   26203.93592508  .00000056  00000-0  47669-4 0  9991","l2":"2 37849  98.7956 144.5692 0001151 181.6095 178.5078 14.19523835763515"},{"id":"38552","name":"METEOSAT 10 (MSG 3)","type":"PAYLOAD","l1":"1 38552U 12035B   26203.75694669 -.00000007  00000-0  00000-0 0  9997","l2":"2 38552   4.7535  60.8424 0001499  20.0765 132.1319  1.00273198 51216"},{"id":"38771","name":"METOP-B","type":"PAYLOAD","l1":"1 38771U 12049A   26203.87776053  .00000064  00000-0  48886-4 0  9996","l2":"2 38771  98.6484 254.6612 0001407 216.1562 143.9520 14.21447891718335"},{"id":"39216","name":"INSAT 3D","type":"PAYLOAD","l1":"1 39216U 13038B   26203.92510366 -.00000337  00000-0  00000-0 0  9995","l2":"2 39216   2.0158  82.0895 0001138  43.8435 277.2757  1.00272852 47433"},{"id":"39260","name":"FENGYUN 3C","type":"PAYLOAD","l1":"1 39260U 13052A   26203.94586027  .00000065  00000-0  54446-4 0  9993","l2":"2 39260  98.5006 176.1838 0013454 281.8423  78.1243 14.15762078663628"},{"id":"40069","name":"METEOR M2","type":"PAYLOAD","l1":"1 40069U 14037A   26203.90361094  .00000154  00000-0  89861-4 0  9995","l2":"2 40069  98.5144 178.3817 0004714 300.4254  59.6458 14.21471212624397"},{"id":"40267","name":"HIMAWARI 8","type":"PAYLOAD","l1":"1 40267U 14060A   26203.92727034 -.00000272  00000-0  00000-0 0  9999","l2":"2 40267   0.0396 267.9566 0001369 248.8349 258.3387  1.00270763 43118"},{"id":"40367","name":"FENGYUN 2G","type":"PAYLOAD","l1":"1 40367U 14090A   26203.86275140 -.00000303  00000-0  00000-0 0  9997","l2":"2 40367   5.7269  72.3819 0003702 171.2321 107.1134  1.00278395 42356"},{"id":"40732","name":"METEOSAT 11 (MSG 4)","type":"PAYLOAD","l1":"1 40732U 15034A   26203.90127022  .00000064  00000-0  00000-0 0  9995","l2":"2 40732   3.2876  70.8766 0001966 355.6260 207.8813  1.00274266  7573"},{"id":"41105","name":"ELEKTRO-L 2","type":"PAYLOAD","l1":"1 41105U 15074A   26203.96782013 -.00000119  00000-0  00000-0 0  9999","l2":"2 41105   6.7817  70.0808 0000650 230.5554 334.0031  1.00272653 38865"},{"id":"41335","name":"SENTINEL 3A","type":"PAYLOAD","l1":"1 41335U 16011A   26203.91264515  .00000063  00000-0  43920-4 0  9992","l2":"2 41335  98.6231 270.7797 0001300  87.0308 273.1021 14.26735830543159"},{"id":"41752","name":"INSAT 3DR","type":"PAYLOAD","l1":"1 41752U 16054A   26203.88656171 -.00000073  00000-0  00000-0 0  9991","l2":"2 41752   0.0886  89.0015 0010264 180.3289  64.4397  1.00271748 36170"},{"id":"41836","name":"HIMAWARI 9","type":"PAYLOAD","l1":"1 41836U 16064A   26203.92735700  .00000000  00000-0  00000-0 0  9995","l2":"2 41836   0.0142  49.8368 0002417 124.5286 240.9039  1.00271775 35567"},{"id":"41866","name":"GOES 16","type":"PAYLOAD","l1":"1 41866U 16071A   26203.87873072 -.00000087  00000-0  00000-0 0  9991","l2":"2 41866   0.4229  85.4285 0000737  70.1213 356.7093  1.00271893 35469"},{"id":"41882","name":"FENGYUN 4A","type":"PAYLOAD","l1":"1 41882U 16077A   26203.92397699 -.00000355  00000-0  00000-0 0  9995","l2":"2 41882   2.4110  79.8746 0008056 158.8590 158.1683  1.00264933 35287"},{"id":"41884","name":"CYGFM05","type":"PAYLOAD","l1":"1 41884U 16078A   26203.88291712  .00029391  00000-0  37636-3 0  9990","l2":"2 41884  34.9577  23.9441 0005267 122.5417 237.5817 15.58145909534324"},{"id":"41885","name":"CYGFM04","type":"PAYLOAD","l1":"1 41885U 16078B   26203.73722765  .00034779  00000-0  36254-3 0  9993","l2":"2 41885  34.9331 350.7302 0004472 171.2900 188.7904 15.63455104534562"},{"id":"41886","name":"CYGFM02","type":"PAYLOAD","l1":"1 41886U 16078C   26203.79327041  .00041520  00000-0  37784-3 0  9999","l2":"2 41886  34.9411 343.7857 0005146 172.8002 187.2800 15.66818040534753"},{"id":"41887","name":"CYGFM01","type":"PAYLOAD","l1":"1 41887U 16078D   26203.85546260  .00030173  00000-0  37581-3 0  9990","l2":"2 41887  34.9407  24.8843 0005122 114.9529 245.1729 15.58874163534276"},{"id":"41888","name":"CYGFM08","type":"PAYLOAD","l1":"1 41888U 16078E   26203.81477673  .00033456  00000-0  37191-3 0  9992","l2":"2 41888  34.9440   3.7491 0006125 153.0035 207.1010 15.61809306534541"},{"id":"41890","name":"CYGFM07","type":"PAYLOAD","l1":"1 41890U 16078G   26203.77156149  .00032344  00000-0  35825-3 0  9999","l2":"2 41890  34.9457 352.3471 0004919 170.5432 189.5387 15.61915340534565"},{"id":"41891","name":"CYGFM03","type":"PAYLOAD","l1":"1 41891U 16078H   26203.74283402  .00032421  00000-0  35938-3 0  9991","l2":"2 41891  34.9411 354.4666 0004481 153.6024 206.4930 15.61898063534530"}]}